{"type": "FeatureCollection", "features": [ {"type": "Feature", "properties": {"norad_id": 46993, "name": "FENGYUN 1C DEB", "group": "fengyun-1c-debris", "lat": -31.039086119610506, "lon": 103.83739591745054, "alt_km": 817.3204977044688, "timestamp": "2025-12-05T09:41:19.420549+00:00", "meta": {"OBJECT_NAME": "FENGYUN 1C DEB", "OBJECT_ID": "1999-025EZT", "EPOCH": "2025-11-27T14:29:20.258016", "MEAN_MOTION": 13.69128576, "ECCENTRICITY": 0.02626499, "INCLINATION": 98.723, "RA_OF_ASC_NODE": 91.4662, "ARG_OF_PERICENTER": 339.6374, "MEAN_ANOMALY": 83.9969, "EPHEMERIS_TYPE": 0, "CLASSIFICATION_TYPE": "U", "NORAD_CAT_ID": 46993, "ELEMENT_SET_NO": 999, "REV_AT_EPOCH": 60050, "BSTAR": 0.00042527912, "MEAN_MOTION_DOT": 4.29e-06, "MEAN_MOTION_DDOT": 0}, "tle": {"line1": "1 46993U 99025EZT 25331.60370669  .00000429  00000+0  42528-3 0  9995", "line2": "2 46993  98.7230  91.4662 0262649 339.6374  83.9969 13.69128576600507"}}, "geometry": {"type": "Point", "coordinates": [103.83739591745054, -31.039086119610506]}}, {"type": "Feature", "properties": {"norad_id": 46995, "name": "FENGYUN 1C DEB", "group": "fengyun-1c-debris", "lat": -48.25881317023318, "lon": -127.75711607355792, "alt_km": 948.1583738499794, "timestamp": "2025-12-05T09:41:19.420559+00:00", "meta": {"OBJECT_NAME": "FENGYUN 1C DEB", "OBJECT_ID": "1999-025EZV", "EPOCH": "2025-12-02T04:23:06.408384", "MEAN_MOTION": 13.86224088, "ECCENTRICITY": 0.01921313, "INCLINATION": 98.5974, "RA_OF_ASC_NODE": 59.0441, "ARG_OF_PERICENTER": 146.7857, "MEAN_ANOMALY": 214.5535, "EPHEMERIS_TYPE": 0, "CLASSIFICATION_TYPE": "U", "NORAD_CAT_ID": 46995, "ELEMENT_SET_NO": 999, "REV_AT_EPOCH": 60322, "BSTAR": 0.0031893895, "MEAN_MOTION_DOT": 4.221e-05, "MEAN_MOTION_DDOT": 0}, "tle": {"line1": "1 46995U 99025EZV 25336.18271306  .00004221  00000+0  31894-2 0  9990", "line2": "2 46995  98.5974  59.0441 0192131 146.7857 214.5535 13.86224088603225"}}, "geometry": {"type": "Point", "coordinates": [-127.75711607355792, -48.25881317023318]}}, {"type": "Feature", "properties": {"norad_id": 46997, "name": "FENGYUN 1C DEB", "group": "fengyun-1c-debris", "lat": 9.466147743715107, "lon": -158.67006463093455, "alt_km": 818.1826042193397, "timestamp": "2025-12-05T09:41:19.420570+00:00", "meta": {"OBJECT_NAME": "FENGYUN 1C DEB", "OBJECT_ID": "1999-025EZX", "EPOCH": "2025-11-27T21:46:19.900992", "MEAN_MOTION": 14.27881269, "ECCENTRICITY": 0.0025231, "INCLINATION": 98.56, "RA_OF_ASC_NODE": 12.5454, "ARG_OF_PERICENTER": 21.0234, "MEAN_ANOMALY": 155.6862, "EPHEMERIS_TYPE": 0, "CLASSIFICATION_TYPE": "U", "NORAD_CAT_ID": 46997, "ELEMENT_SET_NO": 999, "REV_AT_EPOCH": 62239, "BSTAR": 0.0012159, "MEAN_MOTION_DOT": 2.977e-05, "MEAN_MOTION_DDOT": 0}, "tle": {"line1": "1 46997U 99025EZX 25331.90717478  .00002977  00000+0  12159-2 0  9991", "line2": "2 46997  98.5600  12.5454 0025231  21.0234 155.6862 14.27881269622394"}}, "geometry": {"type": "Point", "coordinates": [-158.67006463093455, 9.466147743715107]}}, {"type": "Feature", "properties": {"norad_id": 47001, "name": "FENGYUN 1C DEB", "group": "fengyun-1c-debris", "lat": -78.05323935590359, "lon": 87.63368950027704, "alt_km": 804.5644095477037, "timestamp": "2025-12-05T09:41:19.420580+00:00", "meta": {"OBJECT_NAME": "FENGYUN 1C DEB", "OBJECT_ID": "1999-025FAB", "EPOCH": "2025-12-04T09:01:49.792800", "MEAN_MOTION": 14.38345772, "ECCENTRICITY": 0.0052258, "INCLINATION": 99.3061, "RA_OF_ASC_NODE": 35.7191, "ARG_OF_PERICENTER": 74.0796, "MEAN_ANOMALY": 286.6138, "EPHEMERIS_TYPE": 0, "CLASSIFICATION_TYPE": "U", "NORAD_CAT_ID": 47001, "ELEMENT_SET_NO": 999, "REV_AT_EPOCH": 73794, "BSTAR": 0.0037257, "MEAN_MOTION_DOT": 0.00011498, "MEAN_MOTION_DDOT": 0}, "tle": {"line1": "1 47001U 99025FAB 25338.37627075  .00011498  00000+0  37257-2 0  9993", "line2": "2 47001  99.3061  35.7191 0052258  74.0796 286.6138 14.38345772737941"}}, "geometry": {"type": "Point", "coordinates": [87.63368950027704, -78.05323935590359]}}, {"type": "Feature", "properties": {"norad_id": 47005, "name": "FENGYUN 1C DEB", "group": "fengyun-1c-debris", "lat": -1.5769859484156465, "lon": 68.09699577365681, "alt_km": 864.076439802845, "timestamp": "2025-12-05T09:41:19.420590+00:00", "meta": {"OBJECT_NAME": "FENGYUN 1C DEB", "OBJECT_ID": "1999-025FAF", "EPOCH": "2025-12-03T11:49:12.815616", "MEAN_MOTION": 14.10913141, "ECCENTRICITY": 0.00635736, "INCLINATION": 99.6019, "RA_OF_ASC_NODE": 65.7889, "ARG_OF_PERICENTER": 267.3996, "MEAN_ANOMALY": 108.1197, "EPHEMERIS_TYPE": 0, "CLASSIFICATION_TYPE": "U", "NORAD_CAT_ID": 47005, "ELEMENT_SET_NO": 999, "REV_AT_EPOCH": 82637, "BSTAR": 0.0032335345, "MEAN_MOTION_DOT": 5.865e-05, "MEAN_MOTION_DDOT": 0}, "tle": {"line1": "1 47005U 99025FAF 25337.49250944  .00005865  00000+0  32335-2 0  9999", "line2": "2 47005  99.6019  65.7889 0063573 267.3996 108.1197 14.10913141826379"}}, "geometry": {"type": "Point", "coordinates": [68.09699577365681, -1.5769859484156465]}}, {"type": "Feature", "properties": {"norad_id": 47007, "name": "FENGYUN 1C DEB", "group": "fengyun-1c-debris", "lat": 42.697094079012125, "lon": 29.8108893678329, "alt_km": 817.5558691059014, "timestamp": "2025-12-05T09:41:19.420601+00:00", "meta": {"OBJECT_NAME": "FENGYUN 1C DEB", "OBJECT_ID": "1999-025FAH", "EPOCH": "2025-12-02T20:54:11.445984", "MEAN_MOTION": 13.97102442, "ECCENTRICITY": 0.02354948, "INCLINATION": 98.2081, "RA_OF_ASC_NODE": 199.8928, "ARG_OF_PERICENTER": 81.4238, "MEAN_ANOMALY": 281.3533, "EPHEMERIS_TYPE": 0, "CLASSIFICATION_TYPE": "U", "NORAD_CAT_ID": 47007, "ELEMENT_SET_NO": 999, "REV_AT_EPOCH": 78711, "BSTAR": 0.0027434055, "MEAN_MOTION_DOT": 4.814e-05, "MEAN_MOTION_DDOT": 0}, "tle": {"line1": "1 47007U 99025FAH 25336.87096581  .00004814  00000+0  27434-2 0  9994", "line2": "2 47007  98.2081 199.8928 0235494  81.4238 281.3533 13.97102442787119"}}, "geometry": {"type": "Point", "coordinates": [29.8108893678329, 42.697094079012125]}}, {"type": "Feature", "properties": {"norad_id": 47009, "name": "FENGYUN 1C DEB", "group": "fengyun-1c-debris", "lat": -35.9970931467582, "lon": 137.5371518734797, "alt_km": 991.7904225091697, "timestamp": "2025-12-05T09:41:19.420611+00:00", "meta": {"OBJECT_NAME": "FENGYUN 1C DEB", "OBJECT_ID": "1999-025FAK", "EPOCH": "2025-12-02T05:09:31.123584", "MEAN_MOTION": 13.37303446, "ECCENTRICITY": 0.0352227, "INCLINATION": 98.9376, "RA_OF_ASC_NODE": 321.2954, "ARG_OF_PERICENTER": 285.6992, "MEAN_ANOMALY": 70.555, "EPHEMERIS_TYPE": 0, "CLASSIFICATION_TYPE": "U", "NORAD_CAT_ID": 47009, "ELEMENT_SET_NO": 999, "REV_AT_EPOCH": 58668, "BSTAR": 0.00057132, "MEAN_MOTION_DOT": 3.87e-06, "MEAN_MOTION_DDOT": 0}, "tle": {"line1": "1 47009U 99025FAK 25336.21494356  .00000387  00000+0  57132-3 0  9996", "line2": "2 47009  98.9376 321.2954 0352227 285.6992  70.5550 13.37303446586681"}}, "geometry": {"type": "Point", "coordinates": [137.5371518734797, -35.9970931467582]}}, {"type": "Feature", "properties": {"norad_id": 47012, "name": "FENGYUN 1C DEB", "group": "fengyun-1c-debris", "lat": -77.37311569393195, "lon": -5.019753971217834, "alt_km": 1098.845672512114, "timestamp": "2025-12-05T09:41:19.420644+00:00", "meta": {"OBJECT_NAME": "FENGYUN 1C DEB", "OBJECT_ID": "1999-025FAN", "EPOCH": "2025-11-21T11:34:23.982528", "MEAN_MOTION": 13.77887873, "ECCENTRICITY": 0.01636388, "INCLINATION": 98.7555, "RA_OF_ASC_NODE": 205.6016, "ARG_OF_PERICENTER": 120.2349, "MEAN_ANOMALY": 241.5118, "EPHEMERIS_TYPE": 0, "CLASSIFICATION_TYPE": "U", "NORAD_CAT_ID": 47012, "ELEMENT_SET_NO": 999, "REV_AT_EPOCH": 54280, "BSTAR": 0.00045664705, "MEAN_MOTION_DOT": 4.67e-06, "MEAN_MOTION_DDOT": 0}, "tle": {"line1": "1 47012U 99025FAN 25325.48222202  .00000467  00000+0  45665-3 0  9993", "line2": "2 47012  98.7555 205.6016 0163638 120.2349 241.5118 13.77887873542803"}}, "geometry": {"type": "Point", "coordinates": [-5.019753971217834, -77.37311569393195]}}, {"type": "Feature", "properties": {"norad_id": 47013, "name": "FENGYUN 1C DEB", "group": "fengyun-1c-debris", "lat": -60.06427569195832, "lon": -144.5030783491557, "alt_km": 794.9663295011378, "timestamp": "2025-12-05T09:41:19.420655+00:00", "meta": {"OBJECT_NAME": "FENGYUN 1C DEB", "OBJECT_ID": "1999-025FAP", "EPOCH": "2025-11-16T11:10:59.954016", "MEAN_MOTION": 14.24672933, "ECCENTRICITY": 0.00559466, "INCLINATION": 98.0819, "RA_OF_ASC_NODE": 32.3431, "ARG_OF_PERICENTER": 238.0397, "MEAN_ANOMALY": 121.5338, "EPHEMERIS_TYPE": 0, "CLASSIFICATION_TYPE": "U", "NORAD_CAT_ID": 47013, "ELEMENT_SET_NO": 999, "REV_AT_EPOCH": 72885, "BSTAR": 0.0028202138, "MEAN_MOTION_DOT": 6.632e-05, "MEAN_MOTION_DDOT": 0}, "tle": {"line1": "1 47013U 99025FAP 25320.46597169  .00006632  00000+0  28202-2 0  9991", "line2": "2 47013  98.0819  32.3431 0055946 238.0397 121.5338 14.24672933728853"}}, "geometry": {"type": "Point", "coordinates": [-144.5030783491557, -60.06427569195832]}}, {"type": "Feature", "properties": {"norad_id": 47015, "name": "FENGYUN 1C DEB", "group": "fengyun-1c-debris", "lat": -49.26012375734897, "lon": -154.85050798162789, "alt_km": 619.8367734391313, "timestamp": "2025-12-05T09:41:19.420665+00:00", "meta": {"OBJECT_NAME": "FENGYUN 1C DEB", "OBJECT_ID": "1999-025FAR", "EPOCH": "2025-12-04T10:03:57.079296", "MEAN_MOTION": 14.87138971, "ECCENTRICITY": 0.0176185, "INCLINATION": 98.7128, "RA_OF_ASC_NODE": 34.3253, "ARG_OF_PERICENTER": 139.2122, "MEAN_ANOMALY": 222.2436, "EPHEMERIS_TYPE": 0, "CLASSIFICATION_TYPE": "U", "NORAD_CAT_ID": 47015, "ELEMENT_SET_NO": 999, "REV_AT_EPOCH": 64258, "BSTAR": 0.0017777, "MEAN_MOTION_DOT": 0.00021243, "MEAN_MOTION_DDOT": 0}, "tle": {"line1": "1 47015U 99025FAR 25338.41941064  .00021243  00000+0  17777-2 0  9994", "line2": "2 47015  98.7128  34.3253 0176185 139.2122 222.2436 14.87138971642587"}}, "geometry": {"type": "Point", "coordinates": [-154.85050798162789, -49.26012375734897]}}]}